CTC1_L_00430001-01
1 10000U 23981TO  26075.70034722  .00000000  00000+0  00000-0 0  9998
2 10000  55.0000   0.0000 0000000   0.0000   0.0000 12.53473438    14
CTC1_L_00430001-02
1 10001U 23190QX  26075.70034722  .00000000  00000+0  00000-0 0  9991
2 10001  55.0000   0.0000 0000000   0.0000  90.0000 12.53473438    14
CTC1_L_00430001-03
1 10002U 22151EJ  26075.70034722  .00000000  00000+0  00000-0 0  9998
2 10002  55.0000   0.0000 0000000   0.0000 180.0000 12.53473438    15
CTC1_L_00430001-04
1 10003U 26776JL  26075.70034722  .00000000  00000+0  00000-0 0  9996
2 10003  55.0000   0.0000 0000000   0.0000 270.0000 12.53473438    16
CTC1_L_00430002-01
1 10004U 24521EO  26075.70034722  .00000000  00000+0  00000-0 0  9993
2 10004  55.0000  12.0000 0000000   0.0000  12.0000 12.53473438    14
CTC1_L_00430002-02
1 10005U 24214FB  26075.70034722  .00000000  00000+0  00000-0 0  9993
2 10005  55.0000  12.0000 0000000   0.0000 102.0000 12.53473438    15
CTC1_L_00430002-03
1 10006U 25761MN  26075.70034722  .00000000  00000+0  00000-0 0  9992
2 10006  55.0000  12.0000 0000000   0.0000 192.0000 12.53473438    15
CTC1_L_00430002-04
1 10007U 26792UT  26075.70034722  .00000000  00000+0  00000-0 0  9998
2 10007  55.0000  12.0000 0000000   0.0000 282.0000 12.53473438    16
CTC1_L_00430003-01
1 10008U 25348FQ  26075.70034722  .00000000  00000+0  00000-0 0  9995
2 10008  55.0000  24.0000 0000000   0.0000  24.0000 12.53473438    14
CTC1_L_00430003-02
1 10009U 25952OK  26075.70034722  .00000000  00000+0  00000-0 0  9997
2 10009  55.0000  24.0000 0000000   0.0000 114.0000 12.53473438    15
CTC1_L_00430003-03
1 10010U 26776PR  26075.70034722  .00000000  00000+0  00000-0 0  9994
2 10010  55.0000  24.0000 0000000   0.0000 204.0000 12.53473438    17
CTC1_L_00430003-04
1 10011U 24977HZ  26075.70034722  .00000000  00000+0  00000-0 0  9996
2 10011  55.0000  24.0000 0000000   0.0000 294.0000 12.53473438    17
CTC1_L_00430004-01
1 10012U 24842OI  26075.70034722  .00000000  00000+0  00000-0 0  9998
2 10012  55.0000  36.0000 0000000   0.0000  36.0000 12.53473438    15
CTC1_L_00430004-02
1 10013U 23936HX  26075.70034722  .00000000  00000+0  00000-0 0  9992
2 10013  55.0000  36.0000 0000000   0.0000 126.0000 12.53473438    16
CTC1_L_00430004-03
1 10014U 25869EA  26075.70034722  .00000000  00000+0  00000-0 0  9990
2 10014  55.0000  36.0000 0000000   0.0000 216.0000 12.53473438    17
CTC1_L_00430004-04
1 10015U 24815HA  26075.70034722  .00000000  00000+0  00000-0 0  9991
2 10015  55.0000  36.0000 0000000   0.0000 306.0000 12.53473438    18
CTC1_L_00430005-01
1 10016U 25175DN  26075.70034722  .00000000  00000+0  00000-0 0  9992
2 10016  55.0000  48.0000 0000000   0.0000  48.0000 12.53473438    15
CTC1_L_00430005-02
1 10017U 22987YF  26075.70034722  .00000000  00000+0  00000-0 0  9991
2 10017  55.0000  48.0000 0000000   0.0000 138.0000 12.53473438    16
CTC1_L_00430005-03
1 10018U 22055LS  26075.70034722  .00000000  00000+0  00000-0 0  9998
2 10018  55.0000  48.0000 0000000   0.0000 228.0000 12.53473438    17
CTC1_L_00430005-04
1 10019U 22516TF  26075.70034722  .00000000  00000+0  00000-0 0  9991
2 10019  55.0000  48.0000 0000000   0.0000 318.0000 12.53473438    18
CTC1_L_00430006-01
1 10020U 26171OL  26075.70034722  .00000000  00000+0  00000-0 0  9994
2 10020  55.0000  60.0000 0000000   0.0000  60.0000 12.53473438    18
CTC1_L_00430006-02
1 10021U 23973TW  26075.70034722  .00000000  00000+0  00000-0 0  9992
2 10021  55.0000  60.0000 0000000   0.0000 150.0000 12.53473438    19
CTC1_L_00430006-03
1 10022U 26001YO  26075.70034722  .00000000  00000+0  00000-0 0  9998
2 10022  55.0000  60.0000 0000000   0.0000 240.0000 12.53473438    10
CTC1_L_00430006-04
1 10023U 23335BM  26075.70034722  .00000000  00000+0  00000-0 0  9996
2 10023  55.0000  60.0000 0000000   0.0000 330.0000 12.53473438    11
CTC1_L_00430007-01
1 10024U 22086D   26075.70034722  .00000000  00000+0  00000-0 0  9999
2 10024  55.0000  72.0000 0000000   0.0000  72.0000 12.53473438    18
CTC1_L_00430007-02
1 10025U 26436IY  26075.70034722  .00000000  00000+0  00000-0 0  9993
2 10025  55.0000  72.0000 0000000   0.0000 162.0000 12.53473438    19
CTC1_L_00430007-03
1 10026U 23352FR  26075.70034722  .00000000  00000+0  00000-0 0  9998
2 10026  55.0000  72.0000 0000000   0.0000 252.0000 12.53473438    10
CTC1_L_00430007-04
1 10027U 26102VT  26075.70034722  .00000000  00000+0  00000-0 0  9995
2 10027  55.0000  72.0000 0000000   0.0000 342.0000 12.53473438    11
CTC1_L_00430008-01
1 10028U 25547XR  26075.70034722  .00000000  00000+0  00000-0 0  9998
2 10028  55.0000  84.0000 0000000   0.0000  84.0000 12.53473438    18
CTC1_L_00430008-02
1 10029U 26747FU  26075.70034722  .00000000  00000+0  00000-0 0  9992
2 10029  55.0000  84.0000 0000000   0.0000 174.0000 12.53473438    19
CTC1_L_00430008-03
1 10030U 24795BO  26075.70034722  .00000000  00000+0  00000-0 0  9995
2 10030  55.0000  84.0000 0000000   0.0000 264.0000 12.53473438    11
CTC1_L_00430008-04
1 10031U 22436XA  26075.70034722  .00000000  00000+0  00000-0 0  9996
2 10031  55.0000  84.0000 0000000   0.0000 354.0000 12.53473438    12
CTC1_L_00430009-01
1 10032U 22930OK  26075.70034722  .00000000  00000+0  00000-0 0  9996
2 10032  55.0000  96.0000 0000000   0.0000  96.0000 12.53473438    19
CTC1_L_00430009-02
1 10033U 22794MH  26075.70034722  .00000000  00000+0  00000-0 0  9995
2 10033  55.0000  96.0000 0000000   0.0000 186.0000 12.53473438    10
CTC1_L_00430009-03
1 10034U 24539AZ  26075.70034722  .00000000  00000+0  00000-0 0  9995
2 10034  55.0000  96.0000 0000000   0.0000 276.0000 12.53473438    11
CTC1_L_00430009-04
1 10035U 23151WG  26075.70034722  .00000000  00000+0  00000-0 0  9995
2 10035  55.0000  96.0000 0000000   0.0000   6.0000 12.53473438    13
CTC1_L_00430010-01
1 10036U 22357YK  26075.70034722  .00000000  00000+0  00000-0 0  9993
2 10036  55.0000 108.0000 0000000   0.0000 108.0000 12.53473438    11
CTC1_L_00430010-02
1 10037U 24396XM  26075.70034722  .00000000  00000+0  00000-0 0  9999
2 10037  55.0000 108.0000 0000000   0.0000 198.0000 12.53473438    11
CTC1_L_00430010-03
1 10038U 22379PP  26075.70034722  .00000000  00000+0  00000-0 0  9999
2 10038  55.0000 108.0000 0000000   0.0000 288.0000 12.53473438    12
CTC1_L_00430010-04
1 10039U 25833WJ  26075.70034722  .00000000  00000+0  00000-0 0  9998
2 10039  55.0000 108.0000 0000000   0.0000  18.0000 12.53473438    14
CTC1_L_00430011-01
1 10040U 24295AG  26075.70034722  .00000000  00000+0  00000-0 0  9991
2 10040  55.0000 120.0000 0000000   0.0000 120.0000 12.53473438    14
CTC1_L_00430011-02
1 10041U 25835ZU  26075.70034722  .00000000  00000+0  00000-0 0  9993
2 10041  55.0000 120.0000 0000000   0.0000 210.0000 12.53473438    15
CTC1_L_00430011-03
1 10042U 24357ET  26075.70034722  .00000000  00000+0  00000-0 0  9992
2 10042  55.0000 120.0000 0000000   0.0000 300.0000 12.53473438    16
CTC1_L_00430011-04
1 10043U 25289PZ  26075.70034722  .00000000  00000+0  00000-0 0  9998
2 10043  55.0000 120.0000 0000000   0.0000  30.0000 12.53473438    17
CTC1_L_00430012-01
1 10044U 25470AH  26075.70034722  .00000000  00000+0  00000-0 0  9991
2 10044  55.0000 132.0000 0000000   0.0000 132.0000 12.53473438    14
CTC1_L_00430012-02
1 10045U 23789KI  26075.70034722  .00000000  00000+0  00000-0 0  9993
2 10045  55.0000 132.0000 0000000   0.0000 222.0000 12.53473438    15
CTC1_L_00430012-03
1 10046U 26024KH  26075.70034722  .00000000  00000+0  00000-0 0  9999
2 10046  55.0000 132.0000 0000000   0.0000 312.0000 12.53473438    16
CTC1_L_00430012-04
1 10047U 25636AG  26075.70034722  .00000000  00000+0  00000-0 0  9998
2 10047  55.0000 132.0000 0000000   0.0000  42.0000 12.53473438    17
CTC1_L_00430013-01
1 10048U 24755LP  26075.70034722  .00000000  00000+0  00000-0 0  9990
2 10048  55.0000 144.0000 0000000   0.0000 144.0000 12.53473438    14
CTC1_L_00430013-02
1 10049U 24493WR  26075.70034722  .00000000  00000+0  00000-0 0  9990
2 10049  55.0000 144.0000 0000000   0.0000 234.0000 12.53473438    15
CTC1_L_00430013-03
1 10050U 24767IC  26075.70034722  .00000000  00000+0  00000-0 0  9996
2 10050  55.0000 144.0000 0000000   0.0000 324.0000 12.53473438    17
CTC1_L_00430013-04
1 10051U 26985CY  26075.70034722  .00000000  00000+0  00000-0 0  9991
2 10051  55.0000 144.0000 0000000   0.0000  54.0000 12.53473438    18
CTC1_L_00430014-01
1 10052U 22352YF  26075.70034722  .00000000  00000+0  00000-0 0  9996
2 10052  55.0000 156.0000 0000000   0.0000 156.0000 12.53473438    15
CTC1_L_00430014-02
1 10053U 23244DN  26075.70034722  .00000000  00000+0  00000-0 0  9998
2 10053  55.0000 156.0000 0000000   0.0000 246.0000 12.53473438    16
CTC1_L_00430014-03
1 10054U 23456YG  26075.70034722  .00000000  00000+0  00000-0 0  9994
2 10054  55.0000 156.0000 0000000   0.0000 336.0000 12.53473438    17
CTC1_L_00430014-04
1 10055U 25388SG  26075.70034722  .00000000  00000+0  00000-0 0  9991
2 10055  55.0000 156.0000 0000000   0.0000  66.0000 12.53473438    18
CTC1_L_00430015-01
1 10056U 23380TJ  26075.70034722  .00000000  00000+0  00000-0 0  9992
2 10056  55.0000 168.0000 0000000   0.0000 168.0000 12.53473438    15
CTC1_L_00430015-02
1 10057U 23034BR  26075.70034722  .00000000  00000+0  00000-0 0  9999
2 10057  55.0000 168.0000 0000000   0.0000 258.0000 12.53473438    16
CTC1_L_00430015-03
1 10058U 23555LZ  26075.70034722  .00000000  00000+0  00000-0 0  9998
2 10058  55.0000 168.0000 0000000   0.0000 348.0000 12.53473438    17
CTC1_L_00430015-04
1 10059U 25485QU  26075.70034722  .00000000  00000+0  00000-0 0  9993
2 10059  55.0000 168.0000 0000000   0.0000  78.0000 12.53473438    18
CTC1_L_00430016-01
1 10060U 22764IB  26075.70034722  .00000000  00000+0  00000-0 0  9992
2 10060  55.0000 180.0000 0000000   0.0000 180.0000 12.53473438    18
CTC1_L_00430016-02
1 10061U 23427RT  26075.70034722  .00000000  00000+0  00000-0 0  9990
2 10061  55.0000 180.0000 0000000   0.0000 270.0000 12.53473438    19
